CCSDS_OMM_VERS = 2.0
CREATION_DATE  = 
ORIGINATOR     = 

OBJECT_NAME    = DELTA 2 R/B(1)
OBJECT_ID      = 1990-008B
CENTER_NAME    = EARTH
REF_FRAME      = TEME
TIME_SYSTEM    = UTC
MEAN_ELEMENT_THEORY = SGP/SGP4

EPOCH          = 2026-01-15T18:20:00.798432
MEAN_MOTION    = 15.48650706
ECCENTRICITY   = .01019954
INCLINATION    = 35.6040
RA_OF_ASC_NODE = 160.2694
ARG_OF_PERICENTER = 129.1356
MEAN_ANOMALY   = 231.8496

EPHEMERIS_TYPE = 0
CLASSIFICATION_TYPE = U
NORAD_CAT_ID   = 20453
ELEMENT_SET_NO = 999
REV_AT_EPOCH   = 91790
BSTAR          = .57568691E-3
MEAN_MOTION_DOT = .39374E-3
MEAN_MOTION_DDOT = 0

CCSDS_OMM_VERS = 2.0
CREATION_DATE  = 
ORIGINATOR     = 

OBJECT_NAME    = COSMOS 2058
OBJECT_ID      = 1990-010A
CENTER_NAME    = EARTH
REF_FRAME      = TEME
TIME_SYSTEM    = UTC
MEAN_ELEMENT_THEORY = SGP/SGP4

EPOCH          = 2026-01-15T16:07:44.953248
MEAN_MOTION    = 15.10811711
ECCENTRICITY   = .00104791
INCLINATION    = 82.4686
RA_OF_ASC_NODE = 99.6517
ARG_OF_PERICENTER = 151.2251
MEAN_ANOMALY   = 208.9559

EPHEMERIS_TYPE = 0
CLASSIFICATION_TYPE = U
NORAD_CAT_ID   = 20465
ELEMENT_SET_NO = 999
REV_AT_EPOCH   = 93423
BSTAR          = .10450654E-3
MEAN_MOTION_DOT = .1767E-4
MEAN_MOTION_DDOT = 0

CCSDS_OMM_VERS = 2.0
CREATION_DATE  = 
ORIGINATOR     = 

OBJECT_NAME    = SL-14 R/B
OBJECT_ID      = 1990-010B
CENTER_NAME    = EARTH
REF_FRAME      = TEME
TIME_SYSTEM    = UTC
MEAN_ELEMENT_THEORY = SGP/SGP4

EPOCH          = 2026-01-15T19:23:20.584896
MEAN_MOTION    = 14.83509496
ECCENTRICITY   = .0021282
INCLINATION    = 82.5043
RA_OF_ASC_NODE = 317.0531
ARG_OF_PERICENTER = 112.2700
MEAN_ANOMALY   = 248.0774

EPHEMERIS_TYPE = 0
CLASSIFICATION_TYPE = U
NORAD_CAT_ID   = 20466
ELEMENT_SET_NO = 999
REV_AT_EPOCH   = 92064
BSTAR          = .36129159E-4
MEAN_MOTION_DOT = .322E-5
MEAN_MOTION_DDOT = 0

CCSDS_OMM_VERS = 2.0
CREATION_DATE  = 
ORIGINATOR     = 

OBJECT_NAME    = SL-14 R/B
OBJECT_ID      = 1990-018B
CENTER_NAME    = EARTH
REF_FRAME      = TEME
TIME_SYSTEM    = UTC
MEAN_ELEMENT_THEORY = SGP/SGP4

EPOCH          = 2026-01-15T18:35:33.167616
MEAN_MOTION    = 14.82086028
ECCENTRICITY   = .00148855
INCLINATION    = 82.5213
RA_OF_ASC_NODE = 272.5571
ARG_OF_PERICENTER = 266.2631
MEAN_ANOMALY   = 93.6881

EPHEMERIS_TYPE = 0
CLASSIFICATION_TYPE = U
NORAD_CAT_ID   = 20511
ELEMENT_SET_NO = 999
REV_AT_EPOCH   = 91474
BSTAR          = .3083588E-4
MEAN_MOTION_DOT = .269E-5
MEAN_MOTION_DDOT = 0

CCSDS_OMM_VERS = 2.0
CREATION_DATE  = 
ORIGINATOR     = 

OBJECT_NAME    = HST
OBJECT_ID      = 1990-037B
CENTER_NAME    = EARTH
REF_FRAME      = TEME
TIME_SYSTEM    = UTC
MEAN_ELEMENT_THEORY = SGP/SGP4

EPOCH          = 2026-01-15T11:41:47.078016
MEAN_MOTION    = 15.28542096
ECCENTRICITY   = .0001829
INCLINATION    = 28.4677
RA_OF_ASC_NODE = 42.6908
ARG_OF_PERICENTER = 232.6442
MEAN_ANOMALY   = 127.3987

EPHEMERIS_TYPE = 0
CLASSIFICATION_TYPE = U
NORAD_CAT_ID   = 20580
ELEMENT_SET_NO = 999
REV_AT_EPOCH   = 76516
BSTAR          = .15618E-3
MEAN_MOTION_DOT = .4687E-4
MEAN_MOTION_DDOT = 0

CCSDS_OMM_VERS = 2.0
CREATION_DATE  = 
ORIGINATOR     = 

OBJECT_NAME    = SL-16 R/B
OBJECT_ID      = 1990-046B
CENTER_NAME    = EARTH
REF_FRAME      = TEME
TIME_SYSTEM    = UTC
MEAN_ELEMENT_THEORY = SGP/SGP4

EPOCH          = 2026-01-15T11:11:17.513088
MEAN_MOTION    = 14.15007686
ECCENTRICITY   = .00134145
INCLINATION    = 70.9996
RA_OF_ASC_NODE = 49.6915
ARG_OF_PERICENTER = 15.6820
MEAN_ANOMALY   = 344.4715

EPHEMERIS_TYPE = 0
CLASSIFICATION_TYPE = U
NORAD_CAT_ID   = 20625
ELEMENT_SET_NO = 999
REV_AT_EPOCH   = 84086
BSTAR          = .49700107E-4
MEAN_MOTION_DOT = .49E-6
MEAN_MOTION_DDOT = 0

CCSDS_OMM_VERS = 2.0
CREATION_DATE  = 
ORIGINATOR     = 

OBJECT_NAME    = COSMOS 2084
OBJECT_ID      = 1990-055A
CENTER_NAME    = EARTH
REF_FRAME      = TEME
TIME_SYSTEM    = UTC
MEAN_ELEMENT_THEORY = SGP/SGP4

EPOCH          = 2026-01-15T18:47:49.431264
MEAN_MOTION    = 15.05255906
ECCENTRICITY   = .00259177
INCLINATION    = 62.7892
RA_OF_ASC_NODE = 155.9737
ARG_OF_PERICENTER = 179.8096
MEAN_ANOMALY   = 180.3019

EPHEMERIS_TYPE = 0
CLASSIFICATION_TYPE = U
NORAD_CAT_ID   = 20663
ELEMENT_SET_NO = 999
REV_AT_EPOCH   = 92835
BSTAR          = .13740877E-3
MEAN_MOTION_DOT = .1781E-4
MEAN_MOTION_DDOT = 0

CCSDS_OMM_VERS = 2.0
CREATION_DATE  = 
ORIGINATOR     = 

OBJECT_NAME    = SL-6 R/B(2)
OBJECT_ID      = 1990-055D
CENTER_NAME    = EARTH
REF_FRAME      = TEME
TIME_SYSTEM    = UTC
MEAN_ELEMENT_THEORY = SGP/SGP4

EPOCH          = 2026-01-15T13:28:38.597376
MEAN_MOTION    = 15.03264718
ECCENTRICITY   = .0017036
INCLINATION    = 62.7823
RA_OF_ASC_NODE = 74.4783
ARG_OF_PERICENTER = 329.0395
MEAN_ANOMALY   = 30.9699

EPHEMERIS_TYPE = 0
CLASSIFICATION_TYPE = U
NORAD_CAT_ID   = 20666
ELEMENT_SET_NO = 999
REV_AT_EPOCH   = 93020
BSTAR          = .10377E-3
MEAN_MOTION_DOT = .1217E-4
MEAN_MOTION_DDOT = 0

CCSDS_OMM_VERS = 2.0
CREATION_DATE  = 
ORIGINATOR     = 

OBJECT_NAME    = SL-8 R/B
OBJECT_ID      = 1990-078B
CENTER_NAME    = EARTH
REF_FRAME      = TEME
TIME_SYSTEM    = UTC
MEAN_ELEMENT_THEORY = SGP/SGP4

EPOCH          = 2026-01-15T18:59:48.153984
MEAN_MOTION    = 14.87098638
ECCENTRICITY   = .03688243
INCLINATION    = 82.9063
RA_OF_ASC_NODE = 298.8064
ARG_OF_PERICENTER = 191.2619
MEAN_ANOMALY   = 168.0187

EPHEMERIS_TYPE = 0
CLASSIFICATION_TYPE = U
NORAD_CAT_ID   = 20775
ELEMENT_SET_NO = 999
REV_AT_EPOCH   = 80143
BSTAR          = .33411481E-3
MEAN_MOTION_DOT = .11048E-3
MEAN_MOTION_DDOT = 0

CCSDS_OMM_VERS = 2.0
CREATION_DATE  = 
ORIGINATOR     = 

OBJECT_NAME    = SL-8 R/B
OBJECT_ID      = 1991-006B
CENTER_NAME    = EARTH
REF_FRAME      = TEME
TIME_SYSTEM    = UTC
MEAN_ELEMENT_THEORY = SGP/SGP4

EPOCH          = 2026-01-15T16:10:48.796032
MEAN_MOTION    = 13.77492220
ECCENTRICITY   = .00223969
INCLINATION    = 82.9406
RA_OF_ASC_NODE = 209.4697
ARG_OF_PERICENTER = 180.7761
MEAN_ANOMALY   = 250.3072

EPHEMERIS_TYPE = 0
CLASSIFICATION_TYPE = U
NORAD_CAT_ID   = 21088
ELEMENT_SET_NO = 999
REV_AT_EPOCH   = 75677
BSTAR          = -.28738506E-4
MEAN_MOTION_DOT = -.13E-6
MEAN_MOTION_DDOT = 0

CCSDS_OMM_VERS = 2.0
CREATION_DATE  = 
ORIGINATOR     = 

OBJECT_NAME    = OKEAN-3
OBJECT_ID      = 1991-039A
CENTER_NAME    = EARTH
REF_FRAME      = TEME
TIME_SYSTEM    = UTC
MEAN_ELEMENT_THEORY = SGP/SGP4

EPOCH          = 2026-01-16T00:09:54.334368
MEAN_MOTION    = 15.04350773
ECCENTRICITY   = .00156518
INCLINATION    = 82.5152
RA_OF_ASC_NODE = 27.8681
ARG_OF_PERICENTER = 144.0329
MEAN_ANOMALY   = 216.1954

EPHEMERIS_TYPE = 0
CLASSIFICATION_TYPE = U
NORAD_CAT_ID   = 21397
ELEMENT_SET_NO = 999
REV_AT_EPOCH   = 85711
BSTAR          = .99616507E-4
MEAN_MOTION_DOT = .1421E-4
MEAN_MOTION_DDOT = 0

CCSDS_OMM_VERS = 2.0
CREATION_DATE  = 
ORIGINATOR     = 

OBJECT_NAME    = COSMOS 2151
OBJECT_ID      = 1991-042A
CENTER_NAME    = EARTH
REF_FRAME      = TEME
TIME_SYSTEM    = UTC
MEAN_ELEMENT_THEORY = SGP/SGP4

EPOCH          = 2026-01-15T21:59:59.891424
MEAN_MOTION    = 14.99850169
ECCENTRICITY   = .00114627
INCLINATION    = 82.4984
RA_OF_ASC_NODE = 134.5665
ARG_OF_PERICENTER = 234.0432
MEAN_ANOMALY   = 125.9730

EPHEMERIS_TYPE = 0
CLASSIFICATION_TYPE = U
NORAD_CAT_ID   = 21422
ELEMENT_SET_NO = 999
REV_AT_EPOCH   = 85528
BSTAR          = .11059165E-3
MEAN_MOTION_DOT = .1397E-4
MEAN_MOTION_DDOT = 0

