DELTA 2 R/B(1)          
1 20453U 90008B   26015.76389813  .00039374  00000+0  57569-3 0  9990
2 20453  35.6040 160.2694 0101995 129.1356 231.8496 15.48650706917905
COSMOS 2058             
1 20465U 90010A   26015.67204807  .00001767  00000+0  10451-3 0  9999
2 20465  82.4686  99.6517 0010479 151.2251 208.9559 15.10811711934233
SL-14 R/B               
1 20466U 90010B   26015.80787714  .00000322  00000+0  36129-4 0  9995
2 20466  82.5043 317.0531 0021282 112.2700 248.0774 14.83509496920642
SL-14 R/B               
1 20511U 90018B   26015.77468944  .00000269  00000+0  30836-4 0  9990
2 20511  82.5213 272.5571 0014885 266.2631  93.6881 14.82086028914742
HST                     
1 20580U 90037B   26015.48735044  .00004687  00000+0  15618-3 0  9991
2 20580  28.4677  42.6908 0001829 232.6442 127.3987 15.28542096765167
SL-16 R/B               
1 20625U 90046B   26015.46617492  .00000049  00000+0  49700-4 0  9993
2 20625  70.9996  49.6915 0013414  15.6820 344.4715 14.15007686840868
COSMOS 2084             
1 20663U 90055A   26015.78321101  .00001781  00000+0  13741-3 0  9998
2 20663  62.7892 155.9737 0025917 179.8096 180.3019 15.05255906928351
SL-6 R/B(2)             
1 20666U 90055D   26015.56155784  .00001217  00000+0  10377-3 0  9995
2 20666  62.7823  74.4783 0017036 329.0395  30.9699 15.03264718930208
SL-8 R/B                
1 20775U 90078B   26015.79152956  .00011048  00000+0  33411-3 0  9991
2 20775  82.9063 298.8064 0368824 191.2619 168.0187 14.87098638801439
SL-8 R/B                
1 21088U 91006B   26015.67417588 -.00000013  00000+0 -28739-4 0  9993
2 21088  82.9406 209.4697 0022396 180.7761 250.3072 13.77492220756777
OKEAN-3                 
1 21397U 91039A   26016.00687887  .00001421  00000+0  99617-4 0  9996
2 21397  82.5152  27.8681 0015651 144.0329 216.1954 15.04350773857115
COSMOS 2151             
1 21422U 91042A   26015.91666541  .00001397  00000+0  11059-3 0  9997
2 21422  82.4984 134.5665 0011462 234.0432 125.9730 14.99850169855287
